{"type": "FeatureCollection", "features": [ {"type": "Feature", "properties": {"norad_id": 35109, "name": "FENGYUN 1C DEB", "group": "fengyun-1c-debris", "lat": 7.368535153454294, "lon": 164.90858046566248, "alt_km": 928.3561333147691, "timestamp": "2025-12-20T16:47:36.573895+00:00", "meta": {"OBJECT_NAME": "FENGYUN 1C DEB", "OBJECT_ID": "1999-025DKM", "EPOCH": "2025-12-18T04:50:17.969568", "MEAN_MOTION": 14.20883962, "ECCENTRICITY": 0.01531157, "INCLINATION": 98.6156, "RA_OF_ASC_NODE": 341.3486, "ARG_OF_PERICENTER": 18.6394, "MEAN_ANOMALY": 342.0307, "EPHEMERIS_TYPE": 0, "CLASSIFICATION_TYPE": "U", "NORAD_CAT_ID": 35109, "ELEMENT_SET_NO": 999, "REV_AT_EPOCH": 64237, "BSTAR": 0.00026485405, "MEAN_MOTION_DOT": 6.02e-06, "MEAN_MOTION_DDOT": 0}, "tle": {"line1": "1 35109U 99025DKM 25352.20159687  .00000602  00000+0  26485-3 0  9993", "line2": "2 35109  98.6156 341.3486 0153115  18.6394 342.0307 14.20883962642375"}}, "geometry": {"type": "Point", "coordinates": [164.90858046566248, 7.368535153454294]}}, {"type": "Feature", "properties": {"norad_id": 35111, "name": "FENGYUN 1C DEB", "group": "fengyun-1c-debris", "lat": 75.31085519621139, "lon": -66.70044341005239, "alt_km": 850.6001596174638, "timestamp": "2025-12-20T16:47:36.573907+00:00", "meta": {"OBJECT_NAME": "FENGYUN 1C DEB", "OBJECT_ID": "1999-025DKP", "EPOCH": "2025-12-16T11:54:10.013472", "MEAN_MOTION": 14.10973478, "ECCENTRICITY": 0.0021869, "INCLINATION": 99.4657, "RA_OF_ASC_NODE": 69.3478, "ARG_OF_PERICENTER": 209.5025, "MEAN_ANOMALY": 150.4911, "EPHEMERIS_TYPE": 0, "CLASSIFICATION_TYPE": "U", "NORAD_CAT_ID": 35111, "ELEMENT_SET_NO": 999, "REV_AT_EPOCH": 64197, "BSTAR": 0.00043746639, "MEAN_MOTION_DOT": 7.38e-06, "MEAN_MOTION_DDOT": 0}, "tle": {"line1": "1 35111U 99025DKP 25350.49594923  .00000738  00000+0  43747-3 0  9991", "line2": "2 35111  99.4657  69.3478 0021869 209.5025 150.4911 14.10973478641971"}}, "geometry": {"type": "Point", "coordinates": [-66.70044341005239, 75.31085519621139]}}, {"type": "Feature", "properties": {"norad_id": 35116, "name": "FENGYUN 1C DEB", "group": "fengyun-1c-debris", "lat": 29.274142499808427, "lon": 35.66079857509927, "alt_km": 764.0342033987963, "timestamp": "2025-12-20T16:47:36.573928+00:00", "meta": {"OBJECT_NAME": "FENGYUN 1C DEB", "OBJECT_ID": "1999-025DKU", "EPOCH": "2025-12-10T22:26:07.135584", "MEAN_MOTION": 14.25062569, "ECCENTRICITY": 0.0059356, "INCLINATION": 98.6618, "RA_OF_ASC_NODE": 30.9255, "ARG_OF_PERICENTER": 54.5271, "MEAN_ANOMALY": 306.1428, "EPHEMERIS_TYPE": 0, "CLASSIFICATION_TYPE": "U", "NORAD_CAT_ID": 35116, "ELEMENT_SET_NO": 999, "REV_AT_EPOCH": 59934, "BSTAR": 0.0014341, "MEAN_MOTION_DOT": 3.381e-05, "MEAN_MOTION_DDOT": 0}, "tle": {"line1": "1 35116U 99025DKU 25344.93480481  .00003381  00000+0  14341-2 0  9995", "line2": "2 35116  98.6618  30.9255 0059356  54.5271 306.1428 14.25062569599346"}}, "geometry": {"type": "Point", "coordinates": [35.66079857509927, 29.274142499808427]}}, {"type": "Feature", "properties": {"norad_id": 35121, "name": "FENGYUN 1C DEB", "group": "fengyun-1c-debris", "lat": -14.613497998829448, "lon": -140.53882019996826, "alt_km": 877.6283791649976, "timestamp": "2025-12-20T16:47:36.573938+00:00", "meta": {"OBJECT_NAME": "FENGYUN 1C DEB", "OBJECT_ID": "1999-025DKZ", "EPOCH": "2025-12-14T20:41:20.055552", "MEAN_MOTION": 14.04750382, "ECCENTRICITY": 0.01586034, "INCLINATION": 98.3008, "RA_OF_ASC_NODE": 211.9365, "ARG_OF_PERICENTER": 90.6719, "MEAN_ANOMALY": 271.2626, "EPHEMERIS_TYPE": 0, "CLASSIFICATION_TYPE": "U", "NORAD_CAT_ID": 35121, "ELEMENT_SET_NO": 999, "REV_AT_EPOCH": 61121, "BSTAR": 0.00012700781, "MEAN_MOTION_DOT": 1.91e-06, "MEAN_MOTION_DDOT": 0}, "tle": {"line1": "1 35121U 99025DKZ 25348.86203768  .00000191  00000+0  12701-3 0  9993", "line2": "2 35121  98.3008 211.9365 0158603  90.6719 271.2626 14.04750382611215"}}, "geometry": {"type": "Point", "coordinates": [-140.53882019996826, -14.613497998829448]}}, {"type": "Feature", "properties": {"norad_id": 35122, "name": "FENGYUN 1C DEB", "group": "fengyun-1c-debris", "lat": 2.6838938579745055, "lon": -166.7127517010262, "alt_km": 834.1054647474975, "timestamp": "2025-12-20T16:47:36.573949+00:00", "meta": {"OBJECT_NAME": "FENGYUN 1C DEB", "OBJECT_ID": "1999-025DLA", "EPOCH": "2025-12-16T06:40:38.257248", "MEAN_MOTION": 14.14128348, "ECCENTRICITY": 0.00254765, "INCLINATION": 98.6718, "RA_OF_ASC_NODE": 8.5868, "ARG_OF_PERICENTER": 147.8283, "MEAN_ANOMALY": 212.4451, "EPHEMERIS_TYPE": 0, "CLASSIFICATION_TYPE": "U", "NORAD_CAT_ID": 35122, "ELEMENT_SET_NO": 999, "REV_AT_EPOCH": 63917, "BSTAR": 0.00028818425, "MEAN_MOTION_DOT": 5.08e-06, "MEAN_MOTION_DDOT": 0}, "tle": {"line1": "1 35122U 99025DLA 25350.27822057  .00000508  00000+0  28818-3 0  9998", "line2": "2 35122  98.6718   8.5868 0025476 147.8283 212.4451 14.14128348639177"}}, "geometry": {"type": "Point", "coordinates": [-166.7127517010262, 2.6838938579745055]}}, {"type": "Feature", "properties": {"norad_id": 35123, "name": "FENGYUN 1C DEB", "group": "fengyun-1c-debris", "lat": -77.1955150576409, "lon": -47.303805876468196, "alt_km": 850.0095718476359, "timestamp": "2025-12-20T16:47:36.573959+00:00", "meta": {"OBJECT_NAME": "FENGYUN 1C DEB", "OBJECT_ID": "1999-025DLB", "EPOCH": "2025-12-19T10:54:35.489088", "MEAN_MOTION": 14.2423349, "ECCENTRICITY": 0.0049602, "INCLINATION": 99.1223, "RA_OF_ASC_NODE": 176.3926, "ARG_OF_PERICENTER": 57.2022, "MEAN_ANOMALY": 303.3919, "EPHEMERIS_TYPE": 0, "CLASSIFICATION_TYPE": "U", "NORAD_CAT_ID": 35123, "ELEMENT_SET_NO": 999, "REV_AT_EPOCH": 61169, "BSTAR": 0.00041167, "MEAN_MOTION_DOT": 9.14e-06, "MEAN_MOTION_DDOT": 0}, "tle": {"line1": "1 35123U 99025DLB 25353.45457742  .00000914  00000+0  41167-3 0  9990", "line2": "2 35123  99.1223 176.3926 0049602  57.2022 303.3919 14.24233490611698"}}, "geometry": {"type": "Point", "coordinates": [-47.303805876468196, -77.1955150576409]}}, {"type": "Feature", "properties": {"norad_id": 35125, "name": "FENGYUN 1C DEB", "group": "fengyun-1c-debris", "lat": -58.45097283078618, "lon": 171.72931263376913, "alt_km": 756.367724291299, "timestamp": "2025-12-20T16:47:36.573969+00:00", "meta": {"OBJECT_NAME": "FENGYUN 1C DEB", "OBJECT_ID": "1999-025DLD", "EPOCH": "2025-12-20T07:17:52.607040", "MEAN_MOTION": 14.33182481, "ECCENTRICITY": 0.0051813, "INCLINATION": 98.2153, "RA_OF_ASC_NODE": 4.9631, "ARG_OF_PERICENTER": 271.6028, "MEAN_ANOMALY": 87.9223, "EPHEMERIS_TYPE": 0, "CLASSIFICATION_TYPE": "U", "NORAD_CAT_ID": 35125, "ELEMENT_SET_NO": 999, "REV_AT_EPOCH": 31390, "BSTAR": 0.00086945, "MEAN_MOTION_DOT": 2.383e-05, "MEAN_MOTION_DDOT": 0}, "tle": {"line1": "1 35125U 99025DLD 25354.30408110  .00002383  00000+0  86945-3 0  9997", "line2": "2 35125  98.2153   4.9631 0051813 271.6028  87.9223 14.33182481313905"}}, "geometry": {"type": "Point", "coordinates": [171.72931263376913, -58.45097283078618]}}, {"type": "Feature", "properties": {"norad_id": 35130, "name": "FENGYUN 1C DEB", "group": "fengyun-1c-debris", "lat": -30.649497100620057, "lon": -154.04110320554383, "alt_km": 566.1921257119566, "timestamp": "2025-12-20T16:47:36.573979+00:00", "meta": {"OBJECT_NAME": "FENGYUN 1C DEB", "OBJECT_ID": "1999-025DLJ", "EPOCH": "2025-12-17T20:09:13.141152", "MEAN_MOTION": 15.01150663, "ECCENTRICITY": 0.00111617, "INCLINATION": 99.0323, "RA_OF_ASC_NODE": 197.2276, "ARG_OF_PERICENTER": 55.756, "MEAN_ANOMALY": 304.4716, "EPHEMERIS_TYPE": 0, "CLASSIFICATION_TYPE": "U", "NORAD_CAT_ID": 35130, "ELEMENT_SET_NO": 999, "REV_AT_EPOCH": 64990, "BSTAR": 0.0063470097, "MEAN_MOTION_DOT": 0.00082289, "MEAN_MOTION_DDOT": 0}, "tle": {"line1": "1 35130U 99025DLJ 25351.83973543  .00082289  00000+0  63470-2 0  9995", "line2": "2 35130  99.0323 197.2276 0011161  55.7560 304.4716 15.01150663649903"}}, "geometry": {"type": "Point", "coordinates": [-154.04110320554383, -30.649497100620057]}}, {"type": "Feature", "properties": {"norad_id": 35135, "name": "FENGYUN 1C DEB", "group": "fengyun-1c-debris", "lat": 16.710501341917738, "lon": 0.6899811702541787, "alt_km": 842.2041958780837, "timestamp": "2025-12-20T16:47:36.573989+00:00", "meta": {"OBJECT_NAME": "FENGYUN 1C DEB", "OBJECT_ID": "1999-025DLP", "EPOCH": "2025-12-16T18:10:55.660224", "MEAN_MOTION": 14.22547917, "ECCENTRICITY": 0.00807653, "INCLINATION": 98.5647, "RA_OF_ASC_NODE": 359.4515, "ARG_OF_PERICENTER": 272.6039, "MEAN_ANOMALY": 86.5896, "EPHEMERIS_TYPE": 0, "CLASSIFICATION_TYPE": "U", "NORAD_CAT_ID": 35135, "ELEMENT_SET_NO": 999, "REV_AT_EPOCH": 87881, "BSTAR": 0.00044907129, "MEAN_MOTION_DOT": 9.93e-06, "MEAN_MOTION_DDOT": 0}, "tle": {"line1": "1 35135U 99025DLP 25350.75758866  .00000993  00000+0  44907-3 0  9996", "line2": "2 35135  98.5647 359.4515 0080765 272.6039  86.5896 14.22547917878811"}}, "geometry": {"type": "Point", "coordinates": [0.6899811702541787, 16.710501341917738]}}, {"type": "Feature", "properties": {"norad_id": 35139, "name": "FENGYUN 1C DEB", "group": "fengyun-1c-debris", "lat": 66.6933009251695, "lon": -20.827949458375187, "alt_km": 859.000218385002, "timestamp": "2025-12-20T16:47:36.574003+00:00", "meta": {"OBJECT_NAME": "FENGYUN 1C DEB", "OBJECT_ID": "1999-025DLT", "EPOCH": "2025-12-17T05:40:19.572096", "MEAN_MOTION": 14.2110105, "ECCENTRICITY": 0.0067913, "INCLINATION": 98.584, "RA_OF_ASC_NODE": 356.3312, "ARG_OF_PERICENTER": 284.2558, "MEAN_ANOMALY": 75.1083, "EPHEMERIS_TYPE": 0, "CLASSIFICATION_TYPE": "U", "NORAD_CAT_ID": 35139, "ELEMENT_SET_NO": 999, "REV_AT_EPOCH": 64217, "BSTAR": 0.0003366611, "MEAN_MOTION_DOT": 7.05e-06, "MEAN_MOTION_DDOT": 0}, "tle": {"line1": "1 35139U 99025DLT 25351.23633764  .00000705  00000+0  33666-3 0  9994", "line2": "2 35139  98.5840 356.3312 0067913 284.2558  75.1083 14.21101050642179"}}, "geometry": {"type": "Point", "coordinates": [-20.827949458375187, 66.6933009251695]}}]}